{
  "type": "FeatureCollection",
  "features": [
    {
      "type": "Feature",
      "properties": {
        "OBJECT_NAME": "EUTELSAT 21B",
        "OBJECT_ID": "2012-062B",
        "EPOCH": "2025-11-29T19:06:39.391200",
        "MEAN_MOTION": 1.00272491,
        "ECCENTRICITY": 0.0003358,
        "INCLINATION": 0.0713,
        "RA_OF_ASC_NODE": 12.5413,
        "ARG_OF_PERICENTER": 249.5554,
        "MEAN_ANOMALY": 115.0944,
        "EPHEMERIS_TYPE": 0,
        "CLASSIFICATION_TYPE": "U",
        "NORAD_CAT_ID": 38992,
        "ELEMENT_SET_NO": 999,
        "REV_AT_EPOCH": 4782,
        "BSTAR": 0,
        "MEAN_MOTION_DOT": 1.51e-06,
        "MEAN_MOTION_DDOT": 0,
        "norad_id": 38992,
        "name": "EUTELSAT 21B",
        "group": "eutelsat",
        "longitude_deg": NaN,
        "latitude_deg": NaN,
        "alt_km": NaN,
        "orbit_class": "HEO",
        "timestamp": "2025-11-30T04:52:16.839426+00:00"
      },
      "geometry": {
        "type": "Point",
        "coordinates": [
          NaN,
          NaN
        ]
      }
    },
    {
      "type": "Feature",
      "properties": {
        "OBJECT_NAME": "EUTELSAT 70B",
        "OBJECT_ID": "2012-069A",
        "EPOCH": "2025-11-29T19:20:38.050944",
        "MEAN_MOTION": 1.00271302,
        "ECCENTRICITY": 0.0004404,
        "INCLINATION": 0.0625,
        "RA_OF_ASC_NODE": 353.2439,
        "ARG_OF_PERICENTER": 245.9003,
        "MEAN_ANOMALY": 190.4601,
        "EPHEMERIS_TYPE": 0,
        "CLASSIFICATION_TYPE": "U",
        "NORAD_CAT_ID": 39020,
        "ELEMENT_SET_NO": 999,
        "REV_AT_EPOCH": 4751,
        "BSTAR": 0,
        "MEAN_MOTION_DOT": -2.2e-07,
        "MEAN_MOTION_DDOT": 0,
        "norad_id": 39020,
        "name": "EUTELSAT 70B",
        "group": "eutelsat",
        "longitude_deg": NaN,
        "latitude_deg": NaN,
        "alt_km": NaN,
        "orbit_class": "HEO",
        "timestamp": "2025-11-30T04:52:16.839473+00:00"
      },
      "geometry": {
        "type": "Point",
        "coordinates": [
          NaN,
          NaN
        ]
      }
    },
    {
      "type": "Feature",
      "properties": {
        "OBJECT_NAME": "EUTELSAT 117 WEST A",
        "OBJECT_ID": "2013-012A",
        "EPOCH": "2025-11-29T15:01:44.924160",
        "MEAN_MOTION": 1.00271656,
        "ECCENTRICITY": 0.000294,
        "INCLINATION": 0.0256,
        "RA_OF_ASC_NODE": 34.3048,
        "ARG_OF_PERICENTER": 213.2596,
        "MEAN_ANOMALY": 289.8518,
        "EPHEMERIS_TYPE": 0,
        "CLASSIFICATION_TYPE": "U",
        "NORAD_CAT_ID": 39122,
        "ELEMENT_SET_NO": 999,
        "REV_AT_EPOCH": 4643,
        "BSTAR": 0,
        "MEAN_MOTION_DOT": 8e-08,
        "MEAN_MOTION_DDOT": 0,
        "norad_id": 39122,
        "name": "EUTELSAT 117 WEST A",
        "group": "eutelsat",
        "longitude_deg": NaN,
        "latitude_deg": NaN,
        "alt_km": NaN,
        "orbit_class": "HEO",
        "timestamp": "2025-11-30T04:52:16.839639+00:00"
      },
      "geometry": {
        "type": "Point",
        "coordinates": [
          NaN,
          NaN
        ]
      }
    },
    {
      "type": "Feature",
      "properties": {
        "OBJECT_NAME": "EUTELSAT 7B",
        "OBJECT_ID": "2013-022A",
        "EPOCH": "2025-11-29T19:02:32.283744",
        "MEAN_MOTION": 1.00272159,
        "ECCENTRICITY": 0.0004186,
        "INCLINATION": 0.0787,
        "RA_OF_ASC_NODE": 25.5713,
        "ARG_OF_PERICENTER": 287.7396,
        "MEAN_ANOMALY": 48.2628,
        "EPHEMERIS_TYPE": 0,
        "CLASSIFICATION_TYPE": "U",
        "NORAD_CAT_ID": 39163,
        "ELEMENT_SET_NO": 999,
        "REV_AT_EPOCH": 4595,
        "BSTAR": 0,
        "MEAN_MOTION_DOT": 6.9e-07,
        "MEAN_MOTION_DDOT": 0,
        "norad_id": 39163,
        "name": "EUTELSAT 7B",
        "group": "eutelsat",
        "longitude_deg": NaN,
        "latitude_deg": NaN,
        "alt_km": NaN,
        "orbit_class": "HEO",
        "timestamp": "2025-11-30T04:52:16.839693+00:00"
      },
      "geometry": {
        "type": "Point",
        "coordinates": [
          NaN,
          NaN
        ]
      }
    },
    {
      "type": "Feature",
      "properties": {
        "OBJECT_NAME": "EXPRESS-AT1",
        "OBJECT_ID": "2014-010A",
        "EPOCH": "2025-11-29T03:51:54.127296",
        "MEAN_MOTION": 1.00271674,
        "ECCENTRICITY": 2.229e-05,
        "INCLINATION": 0.0184,
        "RA_OF_ASC_NODE": 291.0739,
        "ARG_OF_PERICENTER": 192.7658,
        "MEAN_ANOMALY": 58.4459,
        "EPHEMERIS_TYPE": 0,
        "CLASSIFICATION_TYPE": "U",
        "NORAD_CAT_ID": 39612,
        "ELEMENT_SET_NO": 999,
        "REV_AT_EPOCH": 4281,
        "BSTAR": 0,
        "MEAN_MOTION_DOT": 9.9e-07,
        "MEAN_MOTION_DDOT": 0,
        "norad_id": 39612,
        "name": "EXPRESS-AT1",
        "group": "eutelsat",
        "longitude_deg": NaN,
        "latitude_deg": NaN,
        "alt_km": NaN,
        "orbit_class": "HEO",
        "timestamp": "2025-11-30T04:52:16.840246+00:00"
      },
      "geometry": {
        "type": "Point",
        "coordinates": [
          NaN,
          NaN
        ]
      }
    },
    {
      "type": "Feature",
      "properties": {
        "OBJECT_NAME": "EXPRESS-AT2",
        "OBJECT_ID": "2014-010B",
        "EPOCH": "2025-11-29T19:47:38.388768",
        "MEAN_MOTION": 1.00269211,
        "ECCENTRICITY": 0.0001616,
        "INCLINATION": 0.0173,
        "RA_OF_ASC_NODE": 302.9014,
        "ARG_OF_PERICENTER": 340.2257,
        "MEAN_ANOMALY": 222.6156,
        "EPHEMERIS_TYPE": 0,
        "CLASSIFICATION_TYPE": "U",
        "NORAD_CAT_ID": 39613,
        "ELEMENT_SET_NO": 999,
        "REV_AT_EPOCH": 4250,
        "BSTAR": 0,
        "MEAN_MOTION_DOT": -2.6e-06,
        "MEAN_MOTION_DDOT": 0,
        "norad_id": 39613,
        "name": "EXPRESS-AT2",
        "group": "eutelsat",
        "longitude_deg": NaN,
        "latitude_deg": NaN,
        "alt_km": NaN,
        "orbit_class": "HEO",
        "timestamp": "2025-11-30T04:52:16.840252+00:00"
      },
      "geometry": {
        "type": "Point",
        "coordinates": [
          NaN,
          NaN
        ]
      }
    },
    {
      "type": "Feature",
      "properties": {
        "OBJECT_NAME": "EUTELSAT 3B",
        "OBJECT_ID": "2014-030A",
        "EPOCH": "2025-11-29T17:18:39.310848",
        "MEAN_MOTION": 1.00270309,
        "ECCENTRICITY": 0.0004704,
        "INCLINATION": 0.0626,
        "RA_OF_ASC_NODE": 352.4104,
        "ARG_OF_PERICENTER": 231.274,
        "MEAN_ANOMALY": 107.954,
        "EPHEMERIS_TYPE": 0,
        "CLASSIFICATION_TYPE": "U",
        "NORAD_CAT_ID": 39773,
        "ELEMENT_SET_NO": 999,
        "REV_AT_EPOCH": 4206,
        "BSTAR": 0,
        "MEAN_MOTION_DOT": 4.1e-07,
        "MEAN_MOTION_DDOT": 0,
        "norad_id": 39773,
        "name": "EUTELSAT 3B",
        "group": "eutelsat",
        "longitude_deg": NaN,
        "latitude_deg": NaN,
        "alt_km": NaN,
        "orbit_class": "HEO",
        "timestamp": "2025-11-30T04:52:16.840376+00:00"
      },
      "geometry": {
        "type": "Point",
        "coordinates": [
          NaN,
          NaN
        ]
      }
    },
    {
      "type": "Feature",
      "properties": {
        "OBJECT_NAME": "EUTELSAT 115 WEST B",
        "OBJECT_ID": "2015-010B",
        "EPOCH": "2025-11-29T16:45:05.027040",
        "MEAN_MOTION": 1.00269235,
        "ECCENTRICITY": 1.75e-05,
        "INCLINATION": 0.0083,
        "RA_OF_ASC_NODE": 143.7926,
        "ARG_OF_PERICENTER": 269.5264,
        "MEAN_ANOMALY": 151.9036,
        "EPHEMERIS_TYPE": 0,
        "CLASSIFICATION_TYPE": "U",
        "NORAD_CAT_ID": 40425,
        "ELEMENT_SET_NO": 999,
        "REV_AT_EPOCH": 3939,
        "BSTAR": 0,
        "MEAN_MOTION_DOT": -4e-08,
        "MEAN_MOTION_DDOT": 0,
        "norad_id": 40425,
        "name": "EUTELSAT 115 WEST B",
        "group": "eutelsat",
        "longitude_deg": NaN,
        "latitude_deg": NaN,
        "alt_km": NaN,
        "orbit_class": "HEO",
        "timestamp": "2025-11-30T04:52:16.841008+00:00"
      },
      "geometry": {
        "type": "Point",
        "coordinates": [
          NaN,
          NaN
        ]
      }
    }
  ]
}