EUTELSAT 21B            
1 38992U 12062B   25333.79628925  .00000151  00000+0  00000+0 0  9991
2 38992   0.0713  12.5413 0003358 249.5554 115.0944  1.00272491 47824
EUTELSAT 70B            
1 39020U 12069A   25333.80599596 -.00000022  00000+0  00000+0 0  9992
2 39020   0.0625 353.2439 0004404 245.9003 190.4601  1.00271302 47517
EUTELSAT 117 WEST A     
1 39122U 13012A   25333.62621440  .00000008  00000+0  00000+0 0  9991
2 39122   0.0256  34.3048 0002940 213.2596 289.8518  1.00271656 46433
EUTELSAT 7B             
1 39163U 13022A   25333.79342921  .00000069  00000+0  00000+0 0  9996
2 39163   0.0787  25.5713 0004186 287.7396  48.2628  1.00272159 45950
EXPRESS-AT1             
1 39612U 14010A   25333.16104314  .00000099  00000+0  00000+0 0  9999
2 39612   0.0184 291.0739 0000222 192.7658  58.4459  1.00271674 42819
EXPRESS-AT2             
1 39613U 14010B   25333.82474987 -.00000260  00000+0  00000+0 0  9990
2 39613   0.0173 302.9014 0001616 340.2257 222.6156  1.00269211 42508
EUTELSAT 3B             
1 39773U 14030A   25333.72128832  .00000041  00000+0  00000+0 0  9999
2 39773   0.0626 352.4104 0004704 231.2740 107.9540  1.00270309 42068
EUTELSAT 115 WEST B     
1 40425U 15010B   25333.69797485 -.00000004  00000+0  00000+0 0  9996
2 40425   0.0083 143.7926 0000175 269.5264 151.9036  1.00269235 39394
